[
    {
        "Altitude(m)": 703889.740362791,
        "Argument of Periapsis(deg)": 0.007973084830638947,
        "Eccentricity": 0.0,
        "Inclination(deg)": 45.0,
        "Latitude(deg)": 27.61901820471775,
        "Longitude(deg)": 65.82629969985076,
        "Mean Anomaly(deg)": 40.800551653236596,
        "RAAN(deg)": 134.99247364097926,
        "Satellite Name": "Constellation 1 596",
        "Satellite Number": 596,
        "Semi-Major Axis(m)": 7083131.272910544,
        "Time(s)": 133
    },
    {
        "Altitude(m)": 703895.1154944109,
        "Argument of Periapsis(deg)": 0.008033032836884352,
        "Eccentricity": 0.0,
        "Inclination(deg)": 45.0,
        "Latitude(deg)": 27.655847512086115,
        "Longitude(deg)": 65.87674010485237,
        "Mean Anomaly(deg)": 40.86125279348645,
        "RAAN(deg)": 134.9924170518137,
        "Satellite Name": "Constellation 1 596",
        "Satellite Number": 596,
        "Semi-Major Axis(m)": 7083131.272910544,
        "Time(s)": 134
    },
    {
        "Altitude(m)": 703900.4974871398,
        "Argument of Periapsis(deg)": 0.008092980843129758,
        "Eccentricity": 0.0,
        "Inclination(deg)": 45.0,
        "Latitude(deg)": 27.69265515558678,
        "Longitude(deg)": 65.92721704967103,
        "Mean Anomaly(deg)": 40.92195393373636,
        "RAAN(deg)": 134.99236046264812,
        "Satellite Name": "Constellation 1 596",
        "Satellite Number": 596,
        "Semi-Major Axis(m)": 7083131.272910544,
        "Time(s)": 135
    },
    {
        "Altitude(m)": 703905.88630235,
        "Argument of Periapsis(deg)": 0.008152928849375162,
        "Eccentricity": 0.0,
        "Inclination(deg)": 45.0,
        "Latitude(deg)": 27.729441087413374,
        "Longitude(deg)": 65.97773059443736,
        "Mean Anomaly(deg)": 40.98265507398625,
        "RAAN(deg)": 134.99230387348254,
        "Satellite Name": "Constellation 1 596",
        "Satellite Number": 596,
        "Semi-Major Axis(m)": 7083131.272910544,
        "Time(s)": 136
    },
    {
        "Altitude(m)": 703911.2819013915,
        "Argument of Periapsis(deg)": 0.008212876855620568,
        "Eccentricity": 0.0,
        "Inclination(deg)": 45.0,
        "Latitude(deg)": 27.76620525969025,
        "Longitude(deg)": 66.02828079926041,
        "Mean Anomaly(deg)": 41.04335621423616,
        "RAAN(deg)": 134.992247284317,
        "Satellite Name": "Constellation 1 596",
        "Satellite Number": 596,
        "Semi-Major Axis(m)": 7083131.272910544,
        "Time(s)": 137
    },
    {
        "Altitude(m)": 703916.6842456054,
        "Argument of Periapsis(deg)": 0.008272824861865974,
        "Eccentricity": 0.0,
        "Inclination(deg)": 45.0,
        "Latitude(deg)": 27.802947624472353,
        "Longitude(deg)": 66.07886772422698,
        "Mean Anomaly(deg)": 41.10405735448607,
        "RAAN(deg)": 134.9921906951514,
        "Satellite Name": "Constellation 1 596",
        "Satellite Number": 596,
        "Semi-Major Axis(m)": 7083131.272910544,
        "Time(s)": 138
    },
    {
        "Altitude(m)": 703922.0932963142,
        "Argument of Periapsis(deg)": 0.00833277286811138,
        "Eccentricity": 0.0,
        "Inclination(deg)": 45.0,
        "Latitude(deg)": 27.83966813374509,
        "Longitude(deg)": 66.12949142940141,
        "Mean Anomaly(deg)": 41.16475849473596,
        "RAAN(deg)": 134.99213410598585,
        "Satellite Name": "Constellation 1 596",
        "Satellite Number": 596,
        "Semi-Major Axis(m)": 7083131.272910544,
        "Time(s)": 139
    },
    {
        "Altitude(m)": 703927.5090148174,
        "Argument of Periapsis(deg)": 0.008392720874356788,
        "Eccentricity": 0.0,
        "Inclination(deg)": 45.0,
        "Latitude(deg)": 27.87636673942446,
        "Longitude(deg)": 66.18015197482497,
        "Mean Anomaly(deg)": 41.225459634985874,
        "RAAN(deg)": 134.99207751682025,
        "Satellite Name": "Constellation 1 596",
        "Satellite Number": 596,
        "Semi-Major Axis(m)": 7083131.272910544,
        "Time(s)": 140
    },
    {
        "Altitude(m)": 703932.9313624088,
        "Argument of Periapsis(deg)": 0.008452668880602192,
        "Eccentricity": 0.0,
        "Inclination(deg)": 45.0,
        "Latitude(deg)": 27.913043393356514,
        "Longitude(deg)": 66.23084925241807,
        "Mean Anomaly(deg)": 41.28616077523576,
        "RAAN(deg)": 134.9920209276547,
        "Satellite Name": "Constellation 1 596",
        "Satellite Number": 596,
        "Semi-Major Axis(m)": 7083131.272910544,
        "Time(s)": 141
    },
    {
        "Altitude(m)": 703938.3603003595,
        "Argument of Periapsis(deg)": 0.008512616886847598,
        "Eccentricity": 0.0,
        "Inclination(deg)": 45.0,
        "Latitude(deg)": 27.949698047318183,
        "Longitude(deg)": 66.2815836583687,
        "Mean Anomaly(deg)": 41.34686191548567,
        "RAAN(deg)": 134.99196433848914,
        "Satellite Name": "Constellation 1 596",
        "Satellite Number": 596,
        "Semi-Major Axis(m)": 7083131.272910544,
        "Time(s)": 142
    },
    {
        "Altitude(m)": 703943.7957899221,
        "Argument of Periapsis(deg)": 0.008572564893093004,
        "Eccentricity": 0.0,
        "Inclination(deg)": 45.0,
        "Latitude(deg)": 27.986330653016097,
        "Longitude(deg)": 66.33235508454861,
        "Mean Anomaly(deg)": 41.40756305573556,
        "RAAN(deg)": 134.99190774932356,
        "Satellite Name": "Constellation 1 596",
        "Satellite Number": 596,
        "Semi-Major Axis(m)": 7083131.272910544,
        "Time(s)": 143
    },
    {
        "Altitude(m)": 703949.2377923415,
        "Argument of Periapsis(deg)": 0.008632512899338408,
        "Eccentricity": 0.0,
        "Inclination(deg)": 45.0,
        "Latitude(deg)": 28.02294116208727,
        "Longitude(deg)": 66.38316359090194,
        "Mean Anomaly(deg)": 41.46826419598547,
        "RAAN(deg)": 134.991851160158,
        "Satellite Name": "Constellation 1 596",
        "Satellite Number": 596,
        "Semi-Major Axis(m)": 7083131.272910544,
        "Time(s)": 144
    },
    {
        "Altitude(m)": 703954.6862688428,
        "Argument of Periapsis(deg)": 0.008692460905583814,
        "Eccentricity": 0.0,
        "Inclination(deg)": 45.0,
        "Latitude(deg)": 28.05952952609872,
        "Longitude(deg)": 66.43400923734698,
        "Mean Anomaly(deg)": 41.52896533623536,
        "RAAN(deg)": 134.99179457099245,
        "Satellite Name": "Constellation 1 596",
        "Satellite Number": 596,
        "Semi-Major Axis(m)": 7083131.272910544,
        "Time(s)": 145
    },
    {
        "Altitude(m)": 703960.1411806322,
        "Argument of Periapsis(deg)": 0.00875240891182922,
        "Eccentricity": 0.0,
        "Inclination(deg)": 45.0,
        "Latitude(deg)": 28.09609569654761,
        "Longitude(deg)": 66.48489208377626,
        "Mean Anomaly(deg)": 41.58966647648527,
        "RAAN(deg)": 134.99173798182684,
        "Satellite Name": "Constellation 1 596",
        "Satellite Number": 596,
        "Semi-Major Axis(m)": 7083131.272910544,
        "Time(s)": 146
    },
    {
        "Altitude(m)": 703965.602488905,
        "Argument of Periapsis(deg)": 0.008812356918074627,
        "Eccentricity": 0.0,
        "Inclination(deg)": 45.0,
        "Latitude(deg)": 28.13263962486089,
        "Longitude(deg)": 66.53581219005548,
        "Mean Anomaly(deg)": 41.65036761673518,
        "RAAN(deg)": 134.9916813926613,
        "Satellite Name": "Constellation 1 596",
        "Satellite Number": 596,
        "Semi-Major Axis(m)": 7083131.272910544,
        "Time(s)": 147
    },
    {
        "Altitude(m)": 703971.0701548415,
        "Argument of Periapsis(deg)": 0.008872304924320031,
        "Eccentricity": 0.0,
        "Inclination(deg)": 45.0,
        "Latitude(deg)": 28.169161262395388,
        "Longitude(deg)": 66.58676944792627,
        "Mean Anomaly(deg)": 41.71106875698504,
        "RAAN(deg)": 134.9916248034957,
        "Satellite Name": "Constellation 1 596",
        "Satellite Number": 596,
        "Semi-Major Axis(m)": 7083131.272910544,
        "Time(s)": 148
    },
    {
        "Altitude(m)": 703976.5441396083,
        "Argument of Periapsis(deg)": 0.008932252930565437,
        "Eccentricity": 0.0,
        "Inclination(deg)": 45.0,
        "Latitude(deg)": 28.205660560438126,
        "Longitude(deg)": 66.63776425339432,
        "Mean Anomaly(deg)": 41.771769897234954,
        "RAAN(deg)": 134.99156821433016,
        "Satellite Name": "Constellation 1 596",
        "Satellite Number": 596,
        "Semi-Major Axis(m)": 7083131.272910544,
        "Time(s)": 149
    },
    {
        "Altitude(m)": 703982.0244043578,
        "Argument of Periapsis(deg)": 0.008992200936810843,
        "Eccentricity": 0.0,
        "Inclination(deg)": 45.0,
        "Latitude(deg)": 28.24213747020544,
        "Longitude(deg)": 66.68879649814552,
        "Mean Anomaly(deg)": 41.832471037484844,
        "RAAN(deg)": 134.99151162516458,
        "Satellite Name": "Constellation 1 596",
        "Satellite Number": 596,
        "Semi-Major Axis(m)": 7083131.272910544,
        "Time(s)": 150
    },
    {
        "Altitude(m)": 703987.5109102165,
        "Argument of Periapsis(deg)": 0.009052148943056249,
        "Eccentricity": 0.0,
        "Inclination(deg)": 45.0,
        "Latitude(deg)": 28.278591942843498,
        "Longitude(deg)": 66.73986624193446,
        "Mean Anomaly(deg)": 41.893172177734776,
        "RAAN(deg)": 134.991455035999,
        "Satellite Name": "Constellation 1 596",
        "Satellite Number": 596,
        "Semi-Major Axis(m)": 7083131.272910544,
        "Time(s)": 151
    }
]